{"type": "FeatureCollection", "features": [ {"type": "Feature", "properties": {"norad_id": 41774, "name": "SKYSAT-C3", "group": "resource", "lat": 59.328679370404195, "lon": 4.6823207649810135, "alt_km": 427.32439523349694, "timestamp": "2025-12-08T13:49:31.450747+00:00", "meta": {"OBJECT_NAME": "SKYSAT-C3", "OBJECT_ID": "2016-058E", "EPOCH": "2025-12-08T01:07:27.110784", "MEAN_MOTION": 15.44154244, "ECCENTRICITY": 0.00015522, "INCLINATION": 96.9299, "RA_OF_ASC_NODE": 16.0121, "ARG_OF_PERICENTER": 104.2631, "MEAN_ANOMALY": 255.8791, "EPHEMERIS_TYPE": 0, "CLASSIFICATION_TYPE": "U", "NORAD_CAT_ID": 41774, "ELEMENT_SET_NO": 999, "REV_AT_EPOCH": 51653, "BSTAR": 0.0004888496, "MEAN_MOTION_DOT": 0.00022349, "MEAN_MOTION_DDOT": 0}, "tle": {"line1": "1 41774U 16058E   25342.04684156  .00022349  00000+0  48885-3 0  9998", "line2": "2 41774  96.9299  16.0121 0001552 104.2631 255.8791 15.44154244516531"}}, "geometry": {"type": "Point", "coordinates": [4.6823207649810135, 59.328679370404195]}}, {"type": "Feature", "properties": {"norad_id": 41785, "name": "ALSAT 1B", "group": "resource", "lat": -78.06291306322547, "lon": 34.84837446887857, "alt_km": 668.9679275506714, "timestamp": "2025-12-08T13:49:31.450759+00:00", "meta": {"OBJECT_NAME": "ALSAT 1B", "OBJECT_ID": "2016-059C", "EPOCH": "2025-12-08T07:40:04.165824", "MEAN_MOTION": 14.72068879, "ECCENTRICITY": 0.00106006, "INCLINATION": 97.7815, "RA_OF_ASC_NODE": 354.3, "ARG_OF_PERICENTER": 116.2814, "MEAN_ANOMALY": 243.9485, "EPHEMERIS_TYPE": 0, "CLASSIFICATION_TYPE": "U", "NORAD_CAT_ID": 41785, "ELEMENT_SET_NO": 999, "REV_AT_EPOCH": 49249, "BSTAR": 0.0001502893, "MEAN_MOTION_DOT": 8.98e-06, "MEAN_MOTION_DDOT": 0}, "tle": {"line1": "1 41785U 16059C   25342.31949266  .00000898  00000+0  15029-3 0  9996", "line2": "2 41785  97.7815 354.3000 0010600 116.2814 243.9485 14.72068879492494"}}, "geometry": {"type": "Point", "coordinates": [34.84837446887857, -78.06291306322547]}}, {"type": "Feature", "properties": {"norad_id": 41787, "name": "PATHFINDER 1", "group": "resource", "lat": 67.32653586978635, "lon": -33.647064650418685, "alt_km": 643.9183716644011, "timestamp": "2025-12-08T13:49:31.450769+00:00", "meta": {"OBJECT_NAME": "PATHFINDER 1", "OBJECT_ID": "2016-059E", "EPOCH": "2025-12-08T06:58:04.930176", "MEAN_MOTION": 14.6730964, "ECCENTRICITY": 0.00300536, "INCLINATION": 97.8138, "RA_OF_ASC_NODE": 345.2704, "ARG_OF_PERICENTER": 94.6991, "MEAN_ANOMALY": 265.7648, "EPHEMERIS_TYPE": 0, "CLASSIFICATION_TYPE": "U", "NORAD_CAT_ID": 41787, "ELEMENT_SET_NO": 999, "REV_AT_EPOCH": 49171, "BSTAR": 0.00027526391, "MEAN_MOTION_DOT": 1.517e-05, "MEAN_MOTION_DDOT": 0}, "tle": {"line1": "1 41787U 16059E   25342.29033484  .00001517  00000+0  27526-3 0  9995", "line2": "2 41787  97.8138 345.2704 0030053  94.6991 265.7648 14.67309640491719"}}, "geometry": {"type": "Point", "coordinates": [-33.647064650418685, 67.32653586978635]}}, {"type": "Feature", "properties": {"norad_id": 41790, "name": "SCATSAT 1", "group": "resource", "lat": -66.78048376201859, "lon": -160.31167081952347, "alt_km": 651.2839676299245, "timestamp": "2025-12-08T13:49:31.450779+00:00", "meta": {"OBJECT_NAME": "SCATSAT 1", "OBJECT_ID": "2016-059H", "EPOCH": "2025-12-08T02:58:06.608640", "MEAN_MOTION": 14.78911997, "ECCENTRICITY": 0.00560605, "INCLINATION": 98.1466, "RA_OF_ASC_NODE": 38.7364, "ARG_OF_PERICENTER": 142.5942, "MEAN_ANOMALY": 217.9191, "EPHEMERIS_TYPE": 0, "CLASSIFICATION_TYPE": "U", "NORAD_CAT_ID": 41790, "ELEMENT_SET_NO": 999, "REV_AT_EPOCH": 7334, "BSTAR": 0.00033760448, "MEAN_MOTION_DOT": 2.499e-05, "MEAN_MOTION_DDOT": 0}, "tle": {"line1": "1 41790U 16059H   25342.12368760  .00002499  00000+0  33760-3 0  9996", "line2": "2 41790  98.1466  38.7364 0056060 142.5942 217.9191 14.78911997 73345"}}, "geometry": {"type": "Point", "coordinates": [-160.31167081952347, -66.78048376201859]}}, {"type": "Feature", "properties": {"norad_id": 41875, "name": "GOKTURK 1A", "group": "resource", "lat": -33.57785873355048, "lon": 49.54219938686658, "alt_km": 690.9893998345933, "timestamp": "2025-12-08T13:49:31.450789+00:00", "meta": {"OBJECT_NAME": "GOKTURK 1A", "OBJECT_ID": "2016-073A", "EPOCH": "2025-12-08T06:17:02.424768", "MEAN_MOTION": 14.62772214, "ECCENTRICITY": 0.00012332, "INCLINATION": 98.1437, "RA_OF_ASC_NODE": 234.6869, "ARG_OF_PERICENTER": 83.3122, "MEAN_ANOMALY": 276.822, "EPHEMERIS_TYPE": 0, "CLASSIFICATION_TYPE": "U", "NORAD_CAT_ID": 41875, "ELEMENT_SET_NO": 999, "REV_AT_EPOCH": 48091, "BSTAR": 0.00022207888, "MEAN_MOTION_DOT": 1.086e-05, "MEAN_MOTION_DDOT": 0}, "tle": {"line1": "1 41875U 16073A   25342.26183362  .00001086  00000+0  22208-3 0  9990", "line2": "2 41875  98.1437 234.6869 0001233  83.3122 276.8220 14.62772214480910"}}, "geometry": {"type": "Point", "coordinates": [49.54219938686658, -33.57785873355048]}}, {"type": "Feature", "properties": {"norad_id": 41877, "name": "RESOURCESAT-2A", "group": "resource", "lat": 20.740462635567976, "lon": -124.19010279158371, "alt_km": 820.1928495912625, "timestamp": "2025-12-08T13:49:31.450800+00:00", "meta": {"OBJECT_NAME": "RESOURCESAT-2A", "OBJECT_ID": "2016-074A", "EPOCH": "2025-12-08T06:19:24.574368", "MEAN_MOTION": 14.21596882, "ECCENTRICITY": 0.00011352, "INCLINATION": 98.7763, "RA_OF_ASC_NODE": 52.1455, "ARG_OF_PERICENTER": 275.4853, "MEAN_ANOMALY": 84.6195, "EPHEMERIS_TYPE": 0, "CLASSIFICATION_TYPE": "U", "NORAD_CAT_ID": 41877, "ELEMENT_SET_NO": 999, "REV_AT_EPOCH": 46717, "BSTAR": 0.00018442572, "MEAN_MOTION_DOT": 3.6e-06, "MEAN_MOTION_DDOT": 0}, "tle": {"line1": "1 41877U 16074A   25342.26347887  .00000360  00000+0  18443-3 0  9997", "line2": "2 41877  98.7763  52.1455 0001135 275.4853  84.6195 14.21596882467179"}}, "geometry": {"type": "Point", "coordinates": [-124.19010279158371, 20.740462635567976]}}, {"type": "Feature", "properties": {"norad_id": 41948, "name": "CARTOSAT-2D", "group": "resource", "lat": 35.174474624872964, "lon": -134.5797890468026, "alt_km": 503.4637282780923, "timestamp": "2025-12-08T13:49:31.450810+00:00", "meta": {"OBJECT_NAME": "CARTOSAT-2D", "OBJECT_ID": "2017-008A", "EPOCH": "2025-12-08T06:52:07.131360", "MEAN_MOTION": 15.19190146, "ECCENTRICITY": 0.00042838, "INCLINATION": 97.4391, "RA_OF_ASC_NODE": 39.8512, "ARG_OF_PERICENTER": 176.3307, "MEAN_ANOMALY": 183.796, "EPHEMERIS_TYPE": 0, "CLASSIFICATION_TYPE": "U", "NORAD_CAT_ID": 41948, "ELEMENT_SET_NO": 999, "REV_AT_EPOCH": 48859, "BSTAR": 0.0003164984, "MEAN_MOTION_DOT": 6.594e-05, "MEAN_MOTION_DDOT": 0}, "tle": {"line1": "1 41948U 17008A   25342.28619365  .00006594  00000+0  31650-3 0  9999", "line2": "2 41948  97.4391  39.8512 0004283 176.3307 183.7960 15.19190146488598"}}, "geometry": {"type": "Point", "coordinates": [-134.5797890468026, 35.174474624872964]}}, {"type": "Feature", "properties": {"norad_id": 42063, "name": "SENTINEL-2B", "group": "resource", "lat": -10.42422925098499, "lon": 56.67066309632647, "alt_km": 793.4391153359456, "timestamp": "2025-12-08T13:49:31.450821+00:00", "meta": {"OBJECT_NAME": "SENTINEL-2B", "OBJECT_ID": "2017-013A", "EPOCH": "2025-12-08T05:28:58.536192", "MEAN_MOTION": 14.30813596, "ECCENTRICITY": 0.00011297, "INCLINATION": 98.5723, "RA_OF_ASC_NODE": 54.7378, "ARG_OF_PERICENTER": 97.8858, "MEAN_ANOMALY": 262.2453, "EPHEMERIS_TYPE": 0, "CLASSIFICATION_TYPE": "U", "NORAD_CAT_ID": 42063, "ELEMENT_SET_NO": 999, "REV_AT_EPOCH": 45733, "BSTAR": 0.0001486747, "MEAN_MOTION_DOT": 3.46e-06, "MEAN_MOTION_DDOT": 0}, "tle": {"line1": "1 42063U 17013A   25342.22845528  .00000346  00000+0  14867-3 0  9990", "line2": "2 42063  98.5723  54.7378 0001129  97.8858 262.2453 14.30813596457339"}}, "geometry": {"type": "Point", "coordinates": [56.67066309632647, -10.42422925098499]}}, {"type": "Feature", "properties": {"norad_id": 42767, "name": "CARTOSAT-2E", "group": "resource", "lat": 54.133254667721495, "lon": 29.781125227895338, "alt_km": 504.4875349647964, "timestamp": "2025-12-08T13:49:31.450831+00:00", "meta": {"OBJECT_NAME": "CARTOSAT-2E", "OBJECT_ID": "2017-036C", "EPOCH": "2025-12-08T05:40:52.528512", "MEAN_MOTION": 15.19253668, "ECCENTRICITY": 0.0002333, "INCLINATION": 97.4558, "RA_OF_ASC_NODE": 39.882, "ARG_OF_PERICENTER": 259.1354, "MEAN_ANOMALY": 100.9618, "EPHEMERIS_TYPE": 0, "CLASSIFICATION_TYPE": "U", "NORAD_CAT_ID": 42767, "ELEMENT_SET_NO": 999, "REV_AT_EPOCH": 46915, "BSTAR": 0.00034679344, "MEAN_MOTION_DOT": 7.244e-05, "MEAN_MOTION_DDOT": 0}, "tle": {"line1": "1 42767U 17036C   25342.23671908  .00007244  00000+0  34679-3 0  9993", "line2": "2 42767  97.4558  39.8820 0002333 259.1354 100.9618 15.19253668469152"}}, "geometry": {"type": "Point", "coordinates": [29.781125227895338, 54.133254667721495]}}, {"type": "Feature", "properties": {"norad_id": 42920, "name": "FORMOSAT-5", "group": "resource", "lat": 48.93262095640035, "lon": 47.39775641825069, "alt_km": 719.1828355809475, "timestamp": "2025-12-08T13:49:31.450842+00:00", "meta": {"OBJECT_NAME": "FORMOSAT-5", "OBJECT_ID": "2017-049A", "EPOCH": "2025-12-08T06:58:39.347616", "MEAN_MOTION": 14.51001615, "ECCENTRICITY": 0.00100693, "INCLINATION": 98.2457, "RA_OF_ASC_NODE": 56.6979, "ARG_OF_PERICENTER": 310.5807, "MEAN_ANOMALY": 49.4511, "EPHEMERIS_TYPE": 0, "CLASSIFICATION_TYPE": "U", "NORAD_CAT_ID": 42920, "ELEMENT_SET_NO": 999, "REV_AT_EPOCH": 43899, "BSTAR": 0.00014592264, "MEAN_MOTION_DOT": 5.33e-06, "MEAN_MOTION_DDOT": 0}, "tle": {"line1": "1 42920U 17049A   25342.29073319  .00000533  00000+0  14592-3 0  9992", "line2": "2 42920  98.2457  56.6979 0010069 310.5807  49.4511 14.51001615438997"}}, "geometry": {"type": "Point", "coordinates": [47.39775641825069, 48.93262095640035]}}]}